[{"OBJECT_NAME":"STARLINK-4490","OBJECT_ID":"2022-097X","EPOCH":"2026-03-09T12:11:45.953664","MEAN_MOTION":15.08837053,"ECCENTRICITY":0.0001525,"INCLINATION":53.2162,"RA_OF_ASC_NODE":105.1299,"ARG_OF_PERICENTER":81.641,"MEAN_ANOMALY":278.4755,"EPHEMERIS_TYPE":0,"CLASSIFICATION_TYPE":"U","NORAD_CAT_ID":53409,"ELEMENT_SET_NO":999,"REV_AT_EPOCH":19876,"BSTAR":5.0140834e-5,"MEAN_MOTION_DOT":5.1e-6,"MEAN_MOTION_DDOT":0},{"OBJECT_NAME":"SSC","OBJECT_ID":"1983-008H","EPOCH":"2026-03-09T22:25:23.890656","MEAN_MOTION":13.80329728,"ECCENTRICITY":0.07175979,"INCLINATION":63.3051,"RA_OF_ASC_NODE":276.7319,"ARG_OF_PERICENTER":134.8771,"MEAN_ANOMALY":231.29,"EPHEMERIS_TYPE":0,"CLASSIFICATION_TYPE":"U","NORAD_CAT_ID":13874,"ELEMENT_SET_NO":999,"REV_AT_EPOCH":33794,"BSTAR":0.00063857039,"MEAN_MOTION_DOT":5.119e-5,"MEAN_MOTION_DDOT":0}]
